{"type":"Feature","properties":{},"geometry":{"type":"MultiLineString","coordinates":[[[129.3789858,36.2773272],[129.3788763,36.2773549],[129.3788297,36.277397],[129.378795,36.277434],[129.3787552,36.2774681],[129.3787122,36.2774995],[129.3786744,36.2775328],[129.3786286,36.277561],[129.3785864,36.2775926],[129.3785554,36.2776353],[129.3784824,36.2777072],[129.3784507,36.2777531],[129.3784252,36.2778019],[129.3783847,36.2779011],[129.3783289,36.2780575],[129.3783145,36.2781068],[129.3783024,36.2781563],[129.3782866,36.2782023],[129.3782635,36.2782444],[129.3782454,36.2782884],[129.3782287,36.2783336],[129.3782155,36.2783784],[129.3781856,36.2785299],[129.3781693,36.2786262],[129.3781477,36.2787215],[129.3781396,36.2787698],[129.3781287,36.2788754],[129.378127,36.278922],[129.3781289,36.27897],[129.3781354,36.2790207],[129.3781461,36.2790723],[129.378159,36.2791208],[129.3781776,36.2791759],[129.3781969,36.2792228],[129.3782173,36.2792657],[129.3782406,36.2793082],[129.3782686,36.2793518],[129.3782997,36.2793906],[129.3783383,36.2794239],[129.3783679,36.2794418],[129.3783827,36.2794484],[129.378398,36.2794529],[129.3784125,36.2794543],[129.3784205,36.279453],[129.3784296,36.2794473],[129.3784522,36.2794231],[129.3784688,36.2794165],[129.378478,36.2794144],[129.378486,36.2794146],[129.3784906,36.279417],[129.3784994,36.2794292],[129.3785016,36.2794362],[129.3785062,36.2794422],[129.3785126,36.2794438],[129.3785228,36.2794425],[129.3785315,36.279439],[129.3785361,36.2794328],[129.3785352,36.2794254],[129.3785285,36.2794144],[129.3785265,36.2794031],[129.3785287,36.2793889],[129.3785395,36.2793699],[129.3785564,36.2793671],[129.3785643,36.2793642],[129.3785755,36.2793573],[129.3785779,36.2793586],[129.378583,36.2793675],[129.3785885,36.2793703],[129.378593,36.2793695],[129.3786035,36.2793634],[129.3786187,36.2793614],[129.378621,36.2793579],[129.3786196,36.2793522],[129.3786077,36.2793444],[129.3786051,36.2793408],[129.3786252,36.2793279],[129.3786349,36.2793286],[129.3786465,36.2793251],[129.3786624,36.2793236],[129.3786917,36.2793316],[129.3786999,36.2793315],[129.3787028,36.2793287],[129.3787022,36.2793235],[129.3787037,36.2793214],[129.3787096,36.2793172],[129.3787149,36.2793171],[129.378725,36.2793211],[129.3787267,36.2793273],[129.378724,36.2793318],[129.3787087,36.2793364],[129.3787039,36.2793404],[129.3786987,36.2793413],[129.3786908,36.279341],[129.3786784,36.2793374],[129.3786697,36.2793385],[129.3786569,36.2793468],[129.3786525,36.2793524],[129.3786512,36.2793565],[129.3786524,36.2793618],[129.3786566,36.2793654],[129.3786732,36.2793724],[129.3786971,36.2793757],[129.3787142,36.2793888],[129.3787344,36.2794012],[129.3787409,36.2794104],[129.3787466,36.2794154],[129.3787717,36.2794287],[129.3787866,36.2794316],[129.3788198,36.2794285],[129.3788309,36.2794308],[129.3788347,36.2794355],[129.3788352,36.2794427],[129.3788316,36.2794517],[129.3788224,36.2794633],[129.3788213,36.2794685],[129.3788243,36.279475],[129.3788377,36.2794826],[129.3788396,36.2794898],[129.3788356,36.2794949],[129.3788302,36.2794965],[129.378818,36.2794971],[129.3787974,36.2794941],[129.3787829,36.279501],[129.3787789,36.2795063],[129.3787784,36.2795176],[129.3787759,36.2795247],[129.3787709,36.2795325],[129.3787605,36.2795431],[129.3787381,36.2795455],[129.3786871,36.2795458],[129.3786788,36.2795494],[129.3786777,36.2795535],[129.3786799,36.2795591],[129.3786958,36.2795662],[129.3786984,36.2795691],[129.3786982,36.2795736],[129.3786908,36.2795933],[129.3786807,36.2796034],[129.378662,36.27963],[129.3786562,36.2796327],[129.3786385,36.2796339],[129.3786326,36.2796373],[129.37863,36.2796433],[129.3786347,36.2796535],[129.3786344,36.2796566],[129.3786206,36.2796709],[129.3786201,36.2796799],[129.3786073,36.2796888],[129.378589,36.279697],[129.3785848,36.2797019],[129.3785833,36.279708],[129.3785852,36.2797146],[129.3786176,36.2797511],[129.3785353,36.2798626],[129.3784721,36.2799147],[129.3784656,36.2799085],[129.3784393,36.279896],[129.3784289,36.2798925],[129.3784188,36.2798914],[129.3784107,36.279894],[129.3784057,36.2798977],[129.3783915,36.2799208],[129.3783858,36.279926],[129.3783787,36.2799278],[129.378367,36.2799278],[129.3783515,36.2799238],[129.3783437,36.2799235],[129.3783438,36.279927],[129.3783525,36.2799384],[129.3783529,36.2799747],[129.3783497,36.2799831],[129.3783128,36.2800121],[129.3783067,36.2800198],[129.3782873,36.2800265],[129.3782776,36.2800284],[129.3782582,36.2800253],[129.3782532,36.280026],[129.378249,36.2800303],[129.3782476,36.2800439],[129.3782439,36.2800489],[129.3782317,36.2800555],[129.3782189,36.2800571],[129.3782139,36.2800597],[129.378187,36.2800966],[129.3781485,36.2801334],[129.3781374,36.2801403],[129.3781375,36.2801448],[129.3781443,36.2801553],[129.378143,36.2801852],[129.3781398,36.2801937],[129.3781267,36.2802041],[129.3781112,36.2802073],[129.3780985,36.2802057],[129.3780429,36.2801867],[129.3780368,36.2801832],[129.3780335,36.2801792],[129.3780353,36.2801656],[129.3780459,36.2801474],[129.3780501,36.2801309],[129.3780453,36.2800839],[129.3780459,36.2800732],[129.3780498,36.2800561],[129.3780508,36.2800347],[129.3780537,36.2800217],[129.378049,36.2800092],[129.3780611,36.2799811],[129.3780573,36.2799734],[129.3780455,36.279966],[129.3780181,36.2799586],[129.3780074,36.2799573],[129.3779459,36.2799585],[129.3778817,36.279966],[129.3778257,36.279976],[129.3777646,36.2799961],[129.3777139,36.2800186],[129.3776616,36.2800476],[129.3776118,36.2800823],[129.3775749,36.2801165],[129.3775529,36.2801481],[129.3775544,36.2801549],[129.3775723,36.2801613],[129.3775768,36.2801648],[129.3775798,36.2801691],[129.3775802,36.2801766],[129.3775787,36.2801847],[129.3775729,36.2801889],[129.3775754,36.2801949],[129.377573,36.280201],[129.3775692,36.2802036],[129.377558,36.2802037],[129.3775531,36.2802065],[129.3775491,36.2802162],[129.3775438,36.2802219],[129.377544,36.2802314],[129.3775356,36.2802401],[129.3775396,36.2802495],[129.3775397,36.2802644],[129.3775362,36.2802749],[129.377519,36.2802871],[129.3775059,36.2802892],[129.3774986,36.2802884],[129.3774951,36.280285],[129.3774977,36.2802761],[129.3774966,36.2802739],[129.3774816,36.280277],[129.3774592,36.2802719],[129.377438,36.2802694],[129.3774298,36.2802701],[129.3774248,36.2802726],[129.377396,36.2803123],[129.3773688,36.280354],[129.3772845,36.2804394],[129.3772114,36.280517],[129.3771714,36.2805617],[129.3771367,36.2806048],[129.3771087,36.2806494],[129.3770799,36.2807016],[129.3770572,36.2807456],[129.3770058,36.2808538],[129.3769038,36.2810432],[129.3768771,36.2810854],[129.3768094,36.2811739],[129.3767773,36.2812122],[129.37675,36.2812534],[129.3767277,36.2812966],[129.3766674,36.2814269],[129.3765995,36.2815528],[129.376542,36.281682],[129.3764782,36.2818091],[129.3764602,36.2818528],[129.3764444,36.2818973],[129.3764258,36.2819411],[129.3763581,36.2820673],[129.3763383,36.2821095],[129.3763016,36.2821963],[129.376281,36.2822389],[129.3762577,36.2822811],[129.3762069,36.2823631],[129.3761886,36.2824083],[129.3761405,36.2825408],[129.3761038,36.282629],[129.3759994,36.2828444],[129.3759065,36.2830594],[129.3758726,36.2831468],[129.3758418,36.2832359],[129.3758085,36.2833241],[129.3757709,36.2834117],[129.3757499,36.283455],[129.3757333,36.2834985],[129.3757067,36.2835863],[129.3756914,36.2836304],[129.3756193,36.2838029],[129.3756025,36.2838461],[129.3755553,36.2839798],[129.3755043,36.28411],[129.3754863,36.284153],[129.375427,36.2842828],[129.375375,36.2844135],[129.375316,36.2845426],[129.3752983,36.2845854],[129.3752053,36.2848484],[129.3751652,36.2849817],[129.375148,36.2850256],[129.3751104,36.2851121],[129.3750783,36.2851994],[129.3750655,36.2852442],[129.375034,36.2853778],[129.3750254,36.2854225],[129.3750109,36.2854666],[129.3749999,36.2855132],[129.3749816,36.2855638],[129.3749656,36.2856288],[129.3749467,36.2857892],[129.3749379,36.2858374],[129.3749259,36.2858889],[129.3749115,36.2859421],[129.3748659,36.2860933],[129.3748574,36.2861458],[129.3748465,36.286192],[129.3748063,36.2863309],[129.3747949,36.2863776],[129.3747499,36.2866072],[129.3747228,36.2867627],[129.3746995,36.286917],[129.3746449,36.2873215],[129.3746336,36.2874432],[129.374623,36.2876177],[129.3746073,36.2877939],[129.3746048,36.2878553],[129.3746051,36.2879171],[129.3746077,36.2879785],[129.3746172,36.2881381],[129.3746234,36.2884842],[129.3746296,36.2885302],[129.3746406,36.288576],[129.3746559,36.2886276],[129.3747078,36.2887821],[129.3747607,36.2889476],[129.3747798,36.2889943],[129.3748101,36.289035],[129.3748328,36.2890775],[129.3748683,36.2891133],[129.3749057,36.2891473],[129.3749431,36.2891841],[129.3749756,36.2892223],[129.3750536,36.2892807],[129.3751659,36.2893471],[129.3752857,36.2894236],[129.3756681,36.289567],[129.3759175,36.2896323],[129.3759529,36.2896985],[129.3760099,36.2897786],[129.376212,36.2899482],[129.3762581,36.2899771],[129.3762985,36.2899868],[129.3763149,36.2899877],[129.3763208,36.2899931],[129.3763362,36.2899972],[129.3763578,36.2900141],[129.3763902,36.2900207]]]}}