{"type":"Feature","properties":{},"geometry":{"type":"MultiLineString","coordinates":[[[129.1545949,35.1557597],[129.1545976,35.1557911],[129.154612,35.1558337],[129.1546381,35.1558875],[129.1546809,35.1559537],[129.1547404,35.1560323],[129.1547837,35.1560836],[129.1548108,35.1561077],[129.1548897,35.1561658],[129.1550203,35.1562582],[129.155126,35.1563231],[129.1552068,35.1563605],[129.155343,35.1564292],[129.1555347,35.1565292],[129.1556659,35.1565943],[129.1557365,35.1566246],[129.1558009,35.1566583],[129.1558589,35.1566952],[129.1559377,35.1567401],[129.1560372,35.1567932],[129.1561067,35.1568277],[129.156146,35.1568436],[129.1561985,35.1568702],[129.1562641,35.1569074],[129.1564109,35.1569782],[129.1566389,35.1570825],[129.1567908,35.1571584],[129.1568665,35.157206],[129.1569884,35.157264],[129.1571564,35.1573326],[129.1572769,35.1573853],[129.1573499,35.1574222],[129.1574411,35.1574574],[129.1575507,35.157491],[129.157634,35.1575252],[129.1576909,35.1575603],[129.1577686,35.1575973],[129.157867,35.1576361],[129.1579691,35.1576695],[129.1580751,35.1576975],[129.1581505,35.157714],[129.1584864,35.1577989],[129.1588188,35.1578502],[129.158935,35.1578776],[129.1590077,35.1578856],[129.1590653,35.1578991],[129.1591078,35.1579182],[129.1591494,35.1579332],[129.1591901,35.157944],[129.1592843,35.157963],[129.159432,35.1579901],[129.1595566,35.1580163],[129.1596582,35.1580416],[129.159763,35.1580724],[129.159871,35.158109],[129.1599926,35.158137],[129.1601279,35.1581566],[129.1602651,35.1581867],[129.160404,35.1582274],[129.1604914,35.158245],[129.1606786,35.1583012],[129.1607469,35.1583285],[129.1607971,35.1583466],[129.1608292,35.1583556],[129.1608772,35.1583656],[129.160941,35.1583767],[129.1610144,35.1583935],[129.1610974,35.1584162],[129.1611685,35.1584299],[129.1612276,35.1584346],[129.1612757,35.158444],[129.1613127,35.158458],[129.1613669,35.1584726],[129.1614382,35.1584879],[129.161514,35.1585097],[129.1615943,35.158538],[129.1616898,35.1585624],[129.1618004,35.1585828],[129.1619546,35.1586176],[129.1621523,35.1586669],[129.1623381,35.1587079],[129.1625121,35.1587406],[129.1627098,35.1587885],[129.1629312,35.1588517],[129.1630964,35.1588938],[129.1632055,35.1589149],[129.1632894,35.1589277],[129.1633483,35.158932],[129.1633986,35.1589335],[129.1634403,35.1589321],[129.1634936,35.1589394],[129.1635584,35.1589554],[129.163637,35.1589697],[129.1637293,35.1589824],[129.163816,35.1589884],[129.163897,35.1589876],[129.1639845,35.1589952],[129.1640786,35.1590113],[129.1641992,35.1590261],[129.1643463,35.1590397],[129.1644551,35.1590465],[129.1645255,35.1590468],[129.1646138,35.1590538],[129.1647198,35.1590677],[129.1648006,35.1590746],[129.1648563,35.1590745],[129.1649206,35.159078],[129.1649938,35.159085],[129.1650936,35.1590903],[129.1652201,35.1590938],[129.1653065,35.1590981],[129.1653529,35.1591031],[129.1655216,35.159132],[129.1655954,35.1591429],[129.1656799,35.1591423],[129.16575,35.1591395],[129.1658056,35.1591345],[129.1658682,35.1591326],[129.1659379,35.159134],[129.1660364,35.1591458],[129.1661638,35.159168],[129.1662768,35.1591807],[129.1663755,35.1591837],[129.1664785,35.1591822],[129.1665859,35.1591761],[129.1666818,35.1591742],[129.1667661,35.1591764],[129.1668742,35.1591729],[129.167006,35.1591637],[129.1671013,35.159161],[129.1671602,35.1591649],[129.1672364,35.1591655],[129.16733,35.1591629],[129.1674131,35.1591625],[129.1674857,35.1591645],[129.1675377,35.1591628],[129.1676399,35.159165],[129.1677799,35.1591784],[129.1678304,35.1591856],[129.1678747,35.1591869],[129.1679286,35.159184],[129.1679921,35.1591767],[129.1680528,35.1591757],[129.1681106,35.1591811],[129.1681599,35.1591816],[129.1682712,35.159168],[129.1683711,35.1591537],[129.1684383,35.1591404],[129.1684726,35.1591282],[129.1685325,35.1591119],[129.168618,35.1590916],[129.1687119,35.1590644],[129.1688133,35.1590094],[129.1689017,35.158946],[129.1689807,35.1588931],[129.1690379,35.1588407],[129.1691024,35.1587696],[129.1691906,35.1586504]]]}}