{"type":"Feature","properties":{},"geometry":{"type":"MultiLineString","coordinates":[[[129.5185339,35.9201476],[129.5185351,35.9201843],[129.5185318,35.9202264],[129.5184799,35.9203909],[129.5184453,35.9204877],[129.5184291,35.9205974],[129.5184078,35.9206512],[129.5183898,35.920705],[129.5183782,35.9207519],[129.5183652,35.9208082],[129.51836,35.9209017],[129.5183674,35.9209418],[129.5183803,35.9210506],[129.5183798,35.9211092],[129.5183732,35.9211579],[129.5183752,35.9211932],[129.5183818,35.9212275],[129.5184117,35.9212689],[129.5184306,35.9213098],[129.5184381,35.9213734],[129.518459,35.9214218],[129.5184922,35.9214511],[129.5185118,35.9214896],[129.5185207,35.9215147],[129.5184751,35.9220315],[129.5184669,35.9221819],[129.518461,35.922358],[129.5184548,35.9224855],[129.518427,35.9227963],[129.5184201,35.9229206],[129.5184172,35.9230551],[129.5184178,35.9233438],[129.5184163,35.9234858],[129.5184103,35.9236279],[129.5183912,35.9239384],[129.5183838,35.9241137],[129.5183774,35.9243366],[129.5183694,35.9247521],[129.5183607,35.9250005],[129.5183645,35.9251596],[129.5183703,35.925308],[129.5183863,35.9255752],[129.5183958,35.9256952],[129.5184162,35.9259104],[129.5184633,35.9263342],[129.5184898,35.9265438],[129.5185281,35.9268156],[129.5185687,35.9270718],[129.5185984,35.9272364],[129.5186368,35.9274242],[129.5186967,35.927692],[129.5187408,35.9278652],[129.518777,35.9279851],[129.5188294,35.9281335],[129.5189357,35.9283969],[129.5189707,35.9284952],[129.5189928,35.9285792],[129.5190218,35.9287164],[129.5190341,35.9287643],[129.519049,35.9288113],[129.5190665,35.9288572],[129.5192615,35.9293011],[129.5193269,35.9294567],[129.5193629,35.9295307],[129.5194364,35.9296723],[129.519549,35.92991],[129.5196351,35.930085],[129.5197096,35.9302413],[129.5197465,35.9303091],[129.5198998,35.9305593],[129.520036,35.9307751],[129.5201427,35.9309571],[129.5201727,35.9310044],[129.5202019,35.9310453],[129.5202303,35.9310808],[129.5203553,35.931218],[129.520441,35.9313183],[129.5205048,35.9313975],[129.5205507,35.9314574],[129.5206898,35.9315905],[129.5207834,35.9316619],[129.5209207,35.9317854],[129.5210653,35.9319314],[129.521147,35.9320231],[129.5212964,35.9321827],[129.5213435,35.9322217],[129.5213992,35.9322712],[129.5214603,35.9323353],[129.5215499,35.9324175],[129.5216376,35.9324943],[129.5217393,35.9325976],[129.5218034,35.9326549],[129.5219106,35.9327247],[129.5219428,35.9327561],[129.5219666,35.9327822],[129.5219968,35.9328056],[129.5220171,35.9328475],[129.5220517,35.9328836],[129.522089,35.9329305],[129.5221356,35.9329664],[129.5221745,35.9329898],[129.5222232,35.933017],[129.5222801,35.933044],[129.5223495,35.9330852],[129.5224588,35.9331422],[129.5225111,35.9331712],[129.5225599,35.9332013],[129.5225808,35.9332222],[129.5226013,35.933238],[129.5226211,35.9332487],[129.5226421,35.9332567],[129.5226881,35.9332458],[129.5228174,35.9332875],[129.5229605,35.9333295],[129.5231317,35.9333766],[129.5233092,35.9334225],[129.5234217,35.9334494],[129.5235292,35.9334725],[129.5236341,35.9334916],[129.5237385,35.9335062],[129.5238436,35.9335164],[129.5239962,35.9335252],[129.5242448,35.9335325],[129.5244919,35.9335361],[129.5246072,35.9335353],[129.5247453,35.9335304],[129.5249084,35.9335189],[129.5249999,35.9335098],[129.5250558,35.9335025],[129.5251102,35.9334931],[129.5251628,35.9334821],[129.5252621,35.9334561],[129.5253518,35.9334274],[129.5254302,35.9333986],[129.5255274,35.9333567],[129.5255817,35.9333283],[129.5256065,35.9333136],[129.5256527,35.9332827],[129.5256677,35.9332633],[129.5256904,35.9332443],[129.5257061,35.9332277],[129.5257221,35.9332065],[129.5257371,35.9331899],[129.5257841,35.9331278],[129.5258102,35.9330846],[129.5258242,35.9330671],[129.5258336,35.9330458],[129.5258551,35.9330093],[129.5258713,35.9329714],[129.5258925,35.932901],[129.5259014,35.9328527],[129.5259176,35.9328431]]]}}