{"type":"Feature","properties":{},"geometry":{"type":"MultiLineString","coordinates":[[[129.2696353,37.3257184],[129.2695925,37.3256611],[129.2695524,37.3255838],[129.2695319,37.3255317],[129.2695115,37.3254637],[129.2693284,37.3250014],[129.2693196,37.3249909],[129.2692977,37.3249527],[129.2692825,37.3248937],[129.2692759,37.3248569],[129.2692578,37.3247086],[129.2692416,37.3245977],[129.269235,37.3245236],[129.2692357,37.3244493],[129.2692507,37.3242634],[129.2692514,37.3242263],[129.269248,37.3241147],[129.2692498,37.3240776],[129.2692538,37.3240405],[129.2692674,37.3239667],[129.2692875,37.3238939],[129.2693011,37.3238584],[129.2693175,37.3238236],[129.2693743,37.3237216],[129.2693915,37.3236871],[129.2694065,37.3236519],[129.2694315,37.3235804],[129.2694739,37.323435],[129.2694979,37.323363],[129.2695249,37.3232919],[129.2696111,37.3230793],[129.2696362,37.3230078],[129.2696794,37.3228628],[129.2696932,37.3228269],[129.269712,37.3227931],[129.2697376,37.3227625],[129.2698001,37.3227068],[129.2698297,37.322678],[129.2698539,37.3226466],[129.2699114,37.3225444],[129.2699339,37.3225119],[129.2699854,37.3224498],[129.2700972,37.3223305],[129.2701484,37.3222687],[129.2701929,37.3222035],[129.2702767,37.3220702],[129.2703223,37.3220053],[129.2703968,37.3219109],[129.2704776,37.3218199],[129.2705922,37.3217024],[129.2707112,37.3215878],[129.270894,37.3214191],[129.2710196,37.3213091],[129.2710845,37.3212557],[129.2712825,37.3210982],[129.2713539,37.3210507],[129.2715419,37.3209404],[129.2716123,37.3208918],[129.2716452,37.3208654],[129.2717066,37.3208093],[129.2717353,37.3207798],[129.2718163,37.3206884],[129.271844,37.3206587],[129.2718736,37.3206302],[129.2719385,37.3205771],[129.2720747,37.320475],[129.272139,37.3204211],[129.2722008,37.3203655],[129.2722614,37.3203089],[129.2723196,37.3202517],[129.272348,37.3202213],[129.272455,37.3200994],[129.2724832,37.3200699],[129.2725439,37.3200137],[129.272671,37.3199044],[129.272701,37.3198758],[129.272729,37.319846],[129.2727543,37.3198148],[129.2728183,37.3197152],[129.2728442,37.3196847],[129.2729062,37.319629],[129.2729351,37.3195999],[129.2729609,37.3195689],[129.27303,37.3194715],[129.2730551,37.3194403],[129.2730834,37.3194111],[129.273115,37.3193838],[129.2731488,37.3193581],[129.2732882,37.3192589],[129.2733872,37.3191801],[129.2734213,37.3191548],[129.2735648,37.3190597],[129.2736346,37.3190105],[129.2737324,37.3189308],[129.2737673,37.3189063],[129.273842,37.3188615],[129.2739571,37.3187978],[129.2739933,37.3187746],[129.2740936,37.3186971],[129.2742005,37.3186252],[129.2743699,37.3184976],[129.2745861,37.3183564],[129.2746208,37.3183314],[129.2746879,37.318279],[129.2747239,37.3182556],[129.2747644,37.3182374],[129.2748227,37.3182153],[129.2748605,37.3181947],[129.2748932,37.3181676],[129.2749827,37.3181066],[129.275055,37.3180499],[129.2752999,37.317829],[129.2753767,37.3177645],[129.2754982,37.317678],[129.2757337,37.3175031],[129.2758092,37.3174451],[129.2758558,37.317429],[129.2759024,37.3174324],[129.2759353,37.317406],[129.2759521,37.3173722],[129.275996,37.3173608],[129.2760369,37.3173424],[129.2760702,37.3173177],[129.2761092,37.3172478],[129.2761334,37.3172161],[129.2761677,37.3171867],[129.2762955,37.3170879],[129.2763428,37.3170531],[129.2764303,37.3169924],[129.2765215,37.3169329],[129.2765775,37.316899],[129.2766418,37.3168626],[129.2767543,37.3168037],[129.2771001,37.3166314],[129.2773324,37.3165133],[129.2774456,37.3164531],[129.2774912,37.3164266],[129.2775308,37.3164009],[129.2775661,37.3163755],[129.2776472,37.3163126],[129.2778176,37.3161887],[129.278091,37.3159801],[129.2783486,37.3157901],[129.2784555,37.3157086],[129.2785587,37.3156239],[129.2787532,37.3154521],[129.2787941,37.3154177],[129.2788323,37.3153919],[129.2788755,37.3153711],[129.2789677,37.3153361],[129.279016,37.3153145],[129.2790545,37.3152949],[129.2791308,37.3152513],[129.2791718,37.3152255],[129.2792113,37.315197],[129.2793189,37.3151106],[129.2793982,37.3150513],[129.2794304,37.3150252],[129.27946,37.3149931],[129.2794897,37.3149563],[129.2795254,37.3149173],[129.2795962,37.3148492],[129.2797112,37.3147435],[129.2797471,37.3147109],[129.2798207,37.3146487],[129.2798906,37.3145927],[129.2799807,37.3145245],[129.2800182,37.3144997],[129.2801518,37.3144214],[129.2805319,37.3141801],[129.280713,37.31407],[129.2808641,37.3139848],[129.281135,37.3138428],[129.2812084,37.313799],[129.2812837,37.3137472],[129.2813536,37.3136926],[129.2815469,37.3135172],[129.2816681,37.3134111],[129.2818129,37.3132914],[129.2819605,37.3131776],[129.282057,37.3131106],[129.2821133,37.3130751],[129.2823534,37.3129368],[129.2824415,37.312883],[129.2824807,37.3128614],[129.2825225,37.3128457],[129.2825531,37.3128378],[129.282593,37.3128325],[129.2826615,37.3128352],[129.2827396,37.3128301],[129.2828256,37.3128312],[129.2828598,37.3128261],[129.2828741,37.3128214],[129.2829423,37.3127862],[129.2830116,37.3127579],[129.2830508,37.3127502],[129.2832481,37.3127387],[129.2834307,37.3127479],[129.2834458,37.3127512],[129.283472,37.3127622],[129.2835156,37.3127738],[129.2835292,37.312775],[129.2835629,37.3127729],[129.2836145,37.3127587],[129.2837104,37.312714],[129.2837458,37.3126873],[129.2837608,37.3126696],[129.283859,37.3124819],[129.2839407,37.3123812],[129.2839954,37.3123374],[129.2841457,37.3122542],[129.2843158,37.3121952],[129.2844591,37.3121753],[129.2844697,37.3121769],[129.2844904,37.3121854],[129.2844973,37.3121868],[129.2845074,37.3121875],[129.2845194,37.3121854],[129.2845325,37.312176],[129.2845379,37.3121683],[129.2845407,37.3121594],[129.2845408,37.3121509],[129.2845375,37.3121378],[129.2845373,37.3121209],[129.2845325,37.3120904],[129.2845326,37.3120743],[129.2845366,37.3120628],[129.2845422,37.3120559],[129.2845522,37.3120482],[129.2847355,37.3119497],[129.2847565,37.3119427],[129.2848632,37.3119225],[129.2848894,37.3119121],[129.2848973,37.311912],[129.2849111,37.3119143],[129.284941,37.3119242],[129.2849579,37.311925],[129.2849771,37.3119222],[129.2850092,37.3119127],[129.2850137,37.3119098],[129.2850216,37.3118976],[129.285026,37.3118823],[129.2850362,37.3117507],[129.2850406,37.3117377],[129.2850577,37.3117091],[129.2851162,37.3116465],[129.2851272,37.311639],[129.2851428,37.3116317],[129.2851826,37.3116204],[129.2852116,37.3116092],[129.2852272,37.3115971],[129.2852328,37.3115897],[129.2852411,37.3115719],[129.2852467,37.3115507],[129.2852464,37.3115404],[129.2852433,37.3115302],[129.2852354,37.3115182],[129.2852143,37.311503],[129.2852071,37.3114958],[129.2852055,37.3114871],[129.2852086,37.3114798],[129.2852245,37.3114638],[129.285232,37.3114586],[129.2852671,37.3114423],[129.2852731,37.3114413],[129.2852774,37.3114423],[129.2852847,37.3114488],[129.2852894,37.3114509],[129.2853095,37.3114511],[129.285325,37.3114467],[129.2853559,37.3114271],[129.2853618,37.3114249],[129.2853667,37.3114241],[129.2853882,37.3114254],[129.2853983,37.3114225],[129.285403,37.3114178],[129.285405,37.3114065],[129.2853996,37.3113747],[129.2854029,37.3113659],[129.2854123,37.311358],[129.2854206,37.3113551],[129.2854433,37.3113516],[129.28545,37.3113488],[129.2854594,37.3113419],[129.2854634,37.3113344],[129.2854635,37.3113269],[129.2854603,37.3113146],[129.2854574,37.3113108],[129.2854508,37.3113049],[129.2854271,37.3112893],[129.2854212,37.3112821],[129.2854197,37.3112765],[129.2854179,37.3111873],[129.2854223,37.3111746],[129.2854406,37.3111524],[129.28551,37.3110946],[129.2855482,37.3110641],[129.285621,37.3110105],[129.2856635,37.3109822],[129.2857954,37.3108991],[129.2858694,37.3108558],[129.2859466,37.3108166],[129.2860989,37.3107443],[129.2861957,37.3107027],[129.2862582,37.3106786],[129.2865551,37.3105715],[129.2866002,37.3105539],[129.2866894,37.3105155],[129.2868253,37.310453],[129.2868693,37.3104277],[129.2869085,37.3103957],[129.2870165,37.3102948],[129.2870522,37.3102633],[129.2871368,37.3101954],[129.2872337,37.3101265],[129.2873243,37.3100668],[129.2874147,37.3100114],[129.287464,37.3099836],[129.2875662,37.3099311],[129.2876626,37.309889],[129.2878127,37.3098318],[129.287944,37.3097868],[129.2880201,37.309763],[129.2881461,37.3097267],[129.2887572,37.3095646],[129.2888034,37.3095569],[129.2888957,37.3095575],[129.2893569,37.3095484],[129.2895221,37.3095427],[129.2896734,37.3095337],[129.2897674,37.3095239],[129.2898168,37.309517],[129.2900897,37.3094725],[129.2902098,37.3094559],[129.2903611,37.3094414],[129.2905648,37.3094145],[129.29067,37.3094025],[129.2907162,37.3093986],[129.2907727,37.3093967],[129.290828,37.3094004],[129.2908742,37.309408],[129.2909186,37.3094177],[129.2909709,37.3094325],[129.2910135,37.3094477],[129.2911033,37.3094871],[129.2911975,37.3095355],[129.2914162,37.3096566],[129.2914446,37.3096765],[129.2914799,37.3097122],[129.2915066,37.3097459],[129.2915712,37.3097828],[129.291602,37.3098055],[129.2916192,37.3098121],[129.2916638,37.3098234],[129.2917113,37.3098333],[129.2917551,37.3098481],[129.2919589,37.3099333],[129.292002,37.3099489],[129.292053,37.3099633],[129.2921051,37.3099752],[129.2921344,37.3099835],[129.2921577,37.3099863],[129.292165,37.3099913],[129.2921759,37.310004],[129.2921807,37.3100163],[129.2921779,37.3100451],[129.2921803,37.3100618],[129.292191,37.310086],[129.2922235,37.3101303],[129.2923556,37.3100684]]]}}