{"type":"Feature","properties":{},"geometry":{"type":"MultiLineString","coordinates":[[[129.4133437,36.6234263],[129.4133281,36.623398],[129.4132263,36.623353],[129.4131261,36.6232998],[129.4130584,36.623269],[129.4130255,36.6232378],[129.4129827,36.6232054],[129.412896,36.6231492],[129.4128249,36.6230856],[129.4127529,36.6230049],[129.4126776,36.6229432],[129.4126164,36.6228864],[129.4125294,36.6228249],[129.4125085,36.6227887],[129.4124753,36.6227565],[129.4124967,36.6227503],[129.4125061,36.6227453],[129.4125094,36.6227348],[129.4125079,36.6227048],[129.412506,36.6226961],[129.4125025,36.6226924],[129.4124894,36.6226908],[129.4124671,36.6226905],[129.4124253,36.6226935],[129.4124037,36.6226937],[129.4123865,36.6226921],[129.4123736,36.6226745],[129.412341,36.6226625],[129.4123039,36.6226569],[129.4122668,36.622618],[129.4122533,36.622595],[129.4122354,36.6225722],[129.4121953,36.622501],[129.4121765,36.622463],[129.4121672,36.6224236],[129.4121625,36.6223931],[129.4121546,36.6223778],[129.4121342,36.6223597],[129.4121208,36.6223384],[129.4121069,36.6223097],[129.4120725,36.6221827],[129.4120727,36.6221752],[129.4120818,36.622147],[129.4120962,36.6221123],[129.4122404,36.6221002],[129.412209,36.6216516],[129.4122291,36.6205095],[129.4122682,36.620416],[129.4122655,36.6198744],[129.4122593,36.6197959],[129.41228,36.6196172],[129.4122826,36.61946],[129.4123452,36.6194254],[129.4123562,36.6193726],[129.4123132,36.6193334],[129.4122966,36.6193058],[129.4122791,36.6192952],[129.4122444,36.6192866],[129.412202,36.61928],[129.4121662,36.6192796],[129.4121449,36.6192863],[129.4121223,36.6193174],[129.4121158,36.61934],[129.4120904,36.6193492],[129.412073,36.6193211],[129.4120408,36.6192892],[129.4120248,36.6192535],[129.4120098,36.6192118],[129.4119986,36.61917],[129.4119913,36.6191346],[129.4119785,36.6190462],[129.4119895,36.61901],[129.4119905,36.6189684],[129.4119878,36.61894],[129.4119912,36.618912],[129.4119955,36.6188937],[129.411995,36.6188778],[129.4119917,36.6188602],[129.4119924,36.6188374],[129.4119984,36.6187826],[129.4119996,36.6187428],[129.4120059,36.6187044],[129.4120054,36.6186652],[129.4120089,36.6186125],[129.4120087,36.6185788],[129.4120062,36.6185539],[129.4120294,36.618376],[129.4120402,36.6182192],[129.4120546,36.6181092],[129.4120748,36.6178164],[129.4121268,36.6175606],[129.4121498,36.6173978],[129.4121655,36.6172239],[129.4121935,36.6170724],[129.4122246,36.6168679],[129.4122681,36.6166771],[129.4122798,36.6166189],[129.4122745,36.6165409],[129.4122758,36.6164906],[129.4122877,36.6164432],[129.4123177,36.616374],[129.4123583,36.6162584],[129.4123616,36.6160777],[129.4123707,36.615967],[129.4124068,36.6157231],[129.4124753,36.6154421],[129.41253,36.6151439],[129.4125595,36.6149719],[129.412585,36.61486],[129.4126101,36.6147197],[129.4126348,36.6146297],[129.412656,36.6145398],[129.4126799,36.6144637],[129.4126939,36.614398],[129.4127126,36.6143358],[129.4127407,36.6142467],[129.4127719,36.6141843],[129.4128142,36.6139631],[129.4130768,36.6130129],[129.4131049,36.6128473],[129.4132647,36.6123435],[129.4133102,36.6121321],[129.4134402,36.6117733],[129.4134529,36.6117048],[129.4134711,36.611626],[129.4135167,36.6113692],[129.4135507,36.6113059],[129.4135823,36.611207],[129.4136051,36.6111189],[129.4136412,36.6110183],[129.4136609,36.610929],[129.4136695,36.6108678],[129.4137075,36.6107703],[129.4137189,36.610694],[129.4137447,36.6106539],[129.4137506,36.6106019],[129.4137862,36.6105214],[129.4138223,36.6104457],[129.4138478,36.6103739],[129.4138902,36.6101926],[129.4139031,36.610121],[129.413927,36.6100483],[129.4139606,36.6099813],[129.4140018,36.6098832],[129.4140547,36.6097211],[129.4140778,36.6096904],[129.4141635,36.6094657],[129.4141985,36.6093895],[129.4142473,36.6093159],[129.4142979,36.6092667],[129.4143379,36.6092458],[129.4144334,36.6092285],[129.4144535,36.6092055],[129.4144669,36.6091844],[129.4144556,36.6091704],[129.4144361,36.6091547],[129.4144453,36.6091132],[129.4144221,36.6090949],[129.4143935,36.6090852],[129.4143683,36.6090709],[129.4143415,36.6090498],[129.4143476,36.6090122],[129.4143601,36.6089734],[129.4143725,36.6089526],[129.4144168,36.6089572],[129.4144349,36.6089222],[129.4144041,36.6088888],[129.4143699,36.6088709],[129.4144068,36.6086845],[129.4144279,36.6085525],[129.4144491,36.6085077],[129.4145576,36.608104],[129.4146322,36.6079642],[129.4146445,36.6079223],[129.4147196,36.607844],[129.4147548,36.607814],[129.4147726,36.6077787],[129.4147827,36.6076926],[129.4148065,36.6076175],[129.4148404,36.6075606],[129.4148435,36.607527],[129.4148726,36.6074884],[129.4148855,36.6074663],[129.4149331,36.6074027],[129.414958,36.6073611],[129.4149733,36.6073294],[129.4149858,36.6072045],[129.4149875,36.6071067],[129.4150115,36.6070401],[129.4150692,36.6069972],[129.4151234,36.606858],[129.4151678,36.6067947],[129.4152172,36.6067117],[129.415249,36.6066864],[129.4152805,36.6066505]]]}}